[{"OBJECT_NAME":"CUBEL","OBJECT_ID":"2021-006AM","EPOCH":"2026-03-09T08:50:18.723264","MEAN_MOTION":15.39239773,"ECCENTRICITY":0.00073561,"INCLINATION":97.2474,"RA_OF_ASC_NODE":119.9764,"ARG_OF_PERICENTER":160.7871,"MEAN_ANOMALY":199.3654,"EPHEMERIS_TYPE":0,"CLASSIFICATION_TYPE":"U","NORAD_CAT_ID":47448,"ELEMENT_SET_NO":999,"REV_AT_EPOCH":28439,"BSTAR":0.00027955436,"MEAN_MOTION_DOT":0.0001081,"MEAN_MOTION_DDOT":0},{"OBJECT_NAME":"OBJECT AL","OBJECT_ID":"2023-091AL","EPOCH":"2026-03-09T22:53:40.653600","MEAN_MOTION":15.4037964,"ECCENTRICITY":0.00073468,"INCLINATION":97.5155,"RA_OF_ASC_NODE":140.236,"ARG_OF_PERICENTER":61.3849,"MEAN_ANOMALY":298.8135,"EPHEMERIS_TYPE":0,"CLASSIFICATION_TYPE":"U","NORAD_CAT_ID":57200,"ELEMENT_SET_NO":999,"REV_AT_EPOCH":14970,"BSTAR":0.00078905328,"MEAN_MOTION_DOT":0.00031911,"MEAN_MOTION_DDOT":0}]
